OBJECT_NAME,OBJECT_ID,EPOCH,MEAN_MOTION,ECCENTRICITY,INCLINATION,RA_OF_ASC_NODE,ARG_OF_PERICENTER,MEAN_ANOMALY,EPHEMERIS_TYPE,CLASSIFICATION_TYPE,NORAD_CAT_ID,ELEMENT_SET_NO,REV_AT_EPOCH,BSTAR,MEAN_MOTION_DOT,MEAN_MOTION_DDOT
STARLINK-38047,2026-150G,2026-07-12T20:00:01.999008,15.80847103,.0001174,97.2840,32.0730,81.7653,107.6626,0,U,69745,999,292,-.42895E-3,-.81657E-3,0
STARLINK-38046,2026-150H,2026-07-12T20:00:01.999008,15.80837619,.0001119,97.2844,32.0778,88.9442,111.4123,0,U,69746,999,292,-.40388E-3,-.769E-3,0
STARLINK-38067,2026-150J,2026-07-12T20:00:01.999008,15.75294138,.00011,97.2837,32.0631,85.7498,79.5845,0,U,69747,999,292,-.1651E-2,-.240664E-2,0
STARLINK-37988,2026-150K,2026-07-12T20:00:01.999008,15.75199383,.0001039,97.2838,32.0661,90.3492,84.9942,0,U,69748,999,292,-.24292E-3,-.36224E-3,0
STARLINK-37987,2026-150L,2026-07-12T20:00:01.999008,15.75189594,.0001399,97.2842,32.0771,83.6604,115.6879,0,U,69749,999,292,-.49837E-3,-.73825E-3,0
STARLINK-38037,2026-150M,2026-07-12T20:00:01.999008,15.80843622,.0001068,97.2842,32.0892,95.5478,130.8075,0,U,69750,999,292,-.3641E-3,-.69418E-3,0
STARLINK-38049,2026-150N,2026-07-12T20:00:01.999008,15.80851553,.0001234,97.2844,32.0917,96.3606,135.7773,0,U,69751,999,292,-.47851E-3,-.90998E-3,0
STARLINK-38029,2026-150P,2026-07-12T20:00:01.999008,15.80827218,.0001185,97.2842,32.1043,94.3251,170.5173,0,U,69752,999,292,-.19461E-3,-.37279E-3,0
STARLINK-37965,2026-150Q,2026-07-12T20:00:01.999008,15.75475215,.0001362,97.2844,32.1011,87.9662,167.2387,0,U,69753,999,292,-.34767E-2,-.495856E-2,0
STARLINK-38048,2026-150R,2026-07-12T20:00:01.999008,15.80866387,.0001061,97.2840,32.1069,86.5504,180.3946,0,U,69754,999,292,-.47504E-3,-.90404E-3,0
STARLINK-38006,2026-150S,2026-07-12T20:00:01.999008,15.80810299,.0000955,97.2837,32.1126,82.7854,199.7831,0,U,69755,999,292,.1597E-4,.2917E-4,0
STARLINK-38036,2026-150T,2026-07-12T20:00:01.999008,15.80848478,.0001166,97.2843,32.1175,92.2166,198.0216,0,U,69756,999,292,-.33262E-3,-.63485E-3,0
STARLINK-38058,2026-150U,2026-07-12T20:00:01.999008,15.80845018,.0001093,97.2842,32.1179,81.6057,210.0768,0,U,69757,999,292,-.36266E-3,-.69151E-3,0
STARLINK-38066,2026-150V,2026-07-12T20:00:01.999008,15.80865250,.0001359,97.2843,32.1186,90.3037,202.2237,0,U,69758,999,292,-.43714E-3,-.83269E-3,0
STARLINK-38035,2026-150W,2026-07-12T20:00:01.999008,15.80850804,.0001112,97.2843,32.1183,80.6293,212.6028,0,U,69759,999,292,-.34554E-3,-.65936E-3,0
STARLINK-38056,2026-150X,2026-07-12T20:00:01.999008,15.80839640,.000141,97.2840,32.1271,87.4200,225.4857,0,U,69760,999,292,-.3764E-3,-.71729E-3,0
STARLINK-38069,2026-150Y,2026-07-12T20:00:01.999008,15.80842973,.000153,97.2840,32.1356,88.1082,244.4647,0,U,69761,999,292,-.39299E-3,-.7487E-3,0
STARLINK-38019,2026-150Z,2026-07-12T20:00:01.999008,15.75161156,.0000731,97.2839,32.1251,54.7941,256.4579,0,U,69762,999,292,.4356E-3,.65258E-3,0
KUIPER-00258,2026-151A,2026-07-12T20:00:01.999008,15.35406403,.0011616,51.8674,191.9434,161.1449,58.5256,0,U,69763,999,201,.17607E-2,.61732E-3,0
KUIPER-00526,2026-151B,2026-07-12T20:00:01.999008,15.37264589,.0006136,51.8760,191.8103,132.5409,153.2644,0,U,69764,999,177,.13903E-2,.51533E-3,0
KUIPER-00558,2026-151C,2026-07-12T20:00:01.999008,15.36757451,.0007715,51.8753,191.8473,143.5419,124.2235,0,U,69765,999,225,.13564E-2,.49449E-3,0
KUIPER-00569,2026-151D,2026-07-12T20:00:01.999008,15.37414748,.0005186,51.8782,191.7941,130.2558,162.5539,0,U,69766,999,130,.13788E-2,.51345E-3,0
KUIPER-00589,2026-151E,2026-07-12T20:00:01.999008,15.37359413,.0005451,51.8749,191.8035,135.9026,153.5261,0,U,69767,999,228,.13908E-2,.51706E-3,0
KUIPER-00598,2026-151F,2026-07-12T20:00:01.999008,15.35236376,.000998,51.8638,191.9316,157.9646,66.5203,0,U,69768,999,219,.13764E-2,.47797E-3,0
KUIPER-00604,2026-151G,2026-07-12T20:00:01.999008,15.38179421,.0002781,51.8790,191.7345,100.9476,219.8033,0,U,69769,999,260,.13755E-2,.5251E-3,0
KUIPER-00609,2026-151H,2026-07-12T20:00:01.999008,15.38576652,.0001082,51.8791,191.7011,51.2083,285.5412,0,U,69770,999,130,.14029E-2,.54272E-3,0
KUIPER-00611,2026-151J,2026-07-12T20:00:01.999008,15.38388830,.0001742,51.8794,191.7135,97.9683,230.8601,0,U,69771,999,130,.13895E-2,.53416E-3,0
KUIPER-00612,2026-151K,2026-07-12T20:00:01.999008,15.37881565,.0003765,51.8784,191.7595,108.7299,200.7683,0,U,69772,999,130,.13839E-2,.52324E-3,0
KUIPER-00614,2026-151L,2026-07-12T20:00:01.999008,15.38090555,.0002832,51.8794,191.7395,115.0357,202.4535,0,U,69773,999,218,.13946E-2,.53094E-3,0
KUIPER-00615,2026-151M,2026-07-12T20:00:01.999008,15.37175353,.0006174,51.8770,191.8167,138.9872,143.3979,0,U,69774,999,130,.13639E-2,.50391E-3,0
