STARLINK-38047          
1 69745U 26150G   26193.83335647 -.00081657  00000+0 -42895-3 0  9994
2 69745  97.2840  32.0730 0001174  81.7653 107.6626 15.80847103  2929
STARLINK-38046          
1 69746U 26150H   26193.83335647 -.00076900  00000+0 -40388-3 0  9995
2 69746  97.2844  32.0778 0001119  88.9442 111.4123 15.80837619  2926
STARLINK-38067          
1 69747U 26150J   26193.83335647 -.00240664  00000+0 -16510-2 0  9995
2 69747  97.2837  32.0631 0001100  85.7498  79.5845 15.75294138  2925
STARLINK-37988          
1 69748U 26150K   26193.83335647 -.00036224  00000+0 -24292-3 0  9998
2 69748  97.2838  32.0661 0001039  90.3492  84.9942 15.75199383  2921
STARLINK-37987          
1 69749U 26150L   26193.83335647 -.00073825  00000+0 -49837-3 0  9999
2 69749  97.2842  32.0771 0001399  83.6604 115.6879 15.75189594  2922
STARLINK-38037          
1 69750U 26150M   26193.83335647 -.00069418  00000+0 -36410-3 0  9997
2 69750  97.2842  32.0892 0001068  95.5478 130.8075 15.80843622  2924
STARLINK-38049          
1 69751U 26150N   26193.83335647 -.00090998  00000+0 -47851-3 0  9996
2 69751  97.2844  32.0917 0001234  96.3606 135.7773 15.80851553  2923
STARLINK-38029          
1 69752U 26150P   26193.83335647 -.00037279  00000+0 -19461-3 0  9996
2 69752  97.2842  32.1043 0001185  94.3251 170.5173 15.80827218  2924
STARLINK-37965          
1 69753U 26150Q   26193.83335647 -.00495856  00000+0 -34767-2 0  9991
2 69753  97.2844  32.1011 0001362  87.9662 167.2387 15.75475215  2923
STARLINK-38048          
1 69754U 26150R   26193.83335647 -.00090404  00000+0 -47504-3 0  9996
2 69754  97.2840  32.1069 0001061  86.5504 180.3946 15.80866387  2926
STARLINK-38006          
1 69755U 26150S   26193.83335647  .00002917  00000+0  15970-4 0  9990
2 69755  97.2837  32.1126 0000955  82.7854 199.7831 15.80810299  2922
STARLINK-38036          
1 69756U 26150T   26193.83335647 -.00063485  00000+0 -33262-3 0  9993
2 69756  97.2843  32.1175 0001166  92.2166 198.0216 15.80848478  2920
STARLINK-38058          
1 69757U 26150U   26193.83335647 -.00069151  00000+0 -36266-3 0  9997
2 69757  97.2842  32.1179 0001093  81.6057 210.0768 15.80845018  2928
STARLINK-38066          
1 69758U 26150V   26193.83335647 -.00083269  00000+0 -43714-3 0  9990
2 69758  97.2843  32.1186 0001359  90.3037 202.2237 15.80865250  2922
STARLINK-38035          
1 69759U 26150W   26193.83335647 -.00065936  00000+0 -34554-3 0  9994
2 69759  97.2843  32.1183 0001112  80.6293 212.6028 15.80850804  2925
STARLINK-38056          
1 69760U 26150X   26193.83335647 -.00071729  00000+0 -37640-3 0  9992
2 69760  97.2840  32.1271 0001410  87.4200 225.4857 15.80839640  2923
STARLINK-38069          
1 69761U 26150Y   26193.83335647 -.00074870  00000+0 -39299-3 0  9995
2 69761  97.2840  32.1356 0001530  88.1082 244.4647 15.80842973  2928
STARLINK-38019          
1 69762U 26150Z   26193.83335647  .00065258  00000+0  43560-3 0  9990
2 69762  97.2839  32.1251 0000731  54.7941 256.4579 15.75161156  2924
KUIPER-00258            
1 69763U 26151A   26193.83335647  .00061732  00000+0  17607-2 0  9997
2 69763  51.8674 191.9434 0011616 161.1449  58.5256 15.35406403  2011
KUIPER-00526            
1 69764U 26151B   26193.83335647  .00051533  00000+0  13903-2 0  9991
2 69764  51.8760 191.8103 0006136 132.5409 153.2644 15.37264589  1774
KUIPER-00558            
1 69765U 26151C   26193.83335647  .00049449  00000+0  13564-2 0  9998
2 69765  51.8753 191.8473 0007715 143.5419 124.2235 15.36757451  2256
KUIPER-00569            
1 69766U 26151D   26193.83335647  .00051345  00000+0  13788-2 0  9995
2 69766  51.8782 191.7941 0005186 130.2558 162.5539 15.37414748  1302
KUIPER-00589            
1 69767U 26151E   26193.83335647  .00051706  00000+0  13908-2 0  9991
2 69767  51.8749 191.8035 0005451 135.9026 153.5261 15.37359413  2285
KUIPER-00598            
1 69768U 26151F   26193.83335647  .00047797  00000+0  13764-2 0  9997
2 69768  51.8638 191.9316 0009980 157.9646  66.5203 15.35236376  2198
KUIPER-00604            
1 69769U 26151G   26193.83335647  .00052510  00000+0  13755-2 0  9997
2 69769  51.8790 191.7345 0002781 100.9476 219.8033 15.38179421  2609
KUIPER-00609            
1 69770U 26151H   26193.83335647  .00054272  00000+0  14029-2 0  9991
2 69770  51.8791 191.7011 0001082  51.2083 285.5412 15.38576652  1301
KUIPER-00611            
1 69771U 26151J   26193.83335647  .00053416  00000+0  13895-2 0  9991
2 69771  51.8794 191.7135 0001742  97.9683 230.8601 15.38388830  1300
KUIPER-00612            
1 69772U 26151K   26193.83335647  .00052324  00000+0  13839-2 0  9997
2 69772  51.8784 191.7595 0003765 108.7299 200.7683 15.37881565  1309
KUIPER-00614            
1 69773U 26151L   26193.83335647  .00053094  00000+0  13946-2 0  9992
2 69773  51.8794 191.7395 0002832 115.0357 202.4535 15.38090555  2183
KUIPER-00615            
1 69774U 26151M   26193.83335647  .00050391  00000+0  13639-2 0  9999
2 69774  51.8770 191.8167 0006174 138.9872 143.3979 15.37175353  1302
